[{"OBJECT_NAME":"STARLINK-2700","OBJECT_ID":"2021-040D","EPOCH":"2026-03-10T00:00:02.999808","MEAN_MOTION":15.11991439,"ECCENTRICITY":5.041e-5,"INCLINATION":53.0768,"RA_OF_ASC_NODE":150.1688,"ARG_OF_PERICENTER":97.2638,"MEAN_ANOMALY":273.4483,"EPHEMERIS_TYPE":0,"CLASSIFICATION_TYPE":"U","NORAD_CAT_ID":48431,"ELEMENT_SET_NO":999,"REV_AT_EPOCH":579,"BSTAR":0.078428308,"MEAN_MOTION_DOT":0.01495167,"MEAN_MOTION_DDOT":0},{"OBJECT_NAME":"SDGSAT 1","OBJECT_ID":"2021-100A","EPOCH":"2026-03-09T22:25:47.765568","MEAN_MOTION":15.19363772,"ECCENTRICITY":0.00064261,"INCLINATION":97.2774,"RA_OF_ASC_NODE":119.531,"ARG_OF_PERICENTER":284.1748,"MEAN_ANOMALY":75.8773,"EPHEMERIS_TYPE":0,"CLASSIFICATION_TYPE":"U","NORAD_CAT_ID":49387,"ELEMENT_SET_NO":999,"REV_AT_EPOCH":24084,"BSTAR":0.00015779611,"MEAN_MOTION_DOT":3.272e-5,"MEAN_MOTION_DDOT":0}]
